IRIDIUM 39              
1 25042U 97069D   25321.47193494  .00001226  00000+0  31454-3 0  9998
2 25042  86.3907 145.4693 0018688 148.6783 211.5538 14.49450378471167
IRIDIUM 38              
1 25043U 97069E   25321.51486016  .00000727  00000+0  23269-3 0  9999
2 25043  86.3980 168.7139 0001646  25.4746 334.6533 14.38281249467994
IRIDIUM 42              
1 25077U 97077A   25321.50080872  .00000484  00000+0  15847-3 0  9997
2 25077  86.3992 175.0734 0001921  63.8949 296.2446 14.36502105463204
IRIDIUM 44              
1 25078U 97077B   25321.45807791  .00000729  00000+0  22351-3 0  9999
2 25078  86.3967 156.6252 0000831 150.8432 209.2814 14.40402431465762
IRIDIUM 45              
1 25104U 97082A   25321.50019007  .00029453  00000+0  86487-3 0  9991
2 25104  86.3546 333.1011 0104681 113.9405 247.2850 15.29617908475418
IRIDIUM 24              
1 25105U 97082B   25321.23255959  .00000853  00000+0  25257-3 0  9991
2 25105  86.3939  15.3729 0009278 296.7989  63.2262 14.42294877465279
IRIDIUM 51              
1 25262U 98018A   25321.48592470  .00101629  00000+0  12988-2 0  9993
2 25262  86.3757 339.1565 0059941  19.1236 341.2257 15.56712845470714
IRIDIUM 57              
1 25273U 98019B   25321.40853267  .00000715  00000+0  23936-3 0  9992
2 25273  86.3947  81.0130 0001948  91.8168 268.3252 14.36023476446778
