<?xml version="1.0" encoding="UTF-8"?>
<ndm xmlns:xsi="http://www.w3.org/2001/XMLSchema-instance" xsi:noNamespaceSchemaLocation="https://sanaregistry.org/r/ndmxml_unqualified/ndmxml-2.0.0-master-2.0.xsd">
<omm id="CCSDS_OMM_VERS" version="2.0">
<header><CREATION_DATE/><ORIGINATOR/></header><body><segment><metadata><OBJECT_NAME>IRIDIUM 39</OBJECT_NAME><OBJECT_ID>1997-069D</OBJECT_ID><CENTER_NAME>EARTH</CENTER_NAME><REF_FRAME>TEME</REF_FRAME><TIME_SYSTEM>UTC</TIME_SYSTEM><MEAN_ELEMENT_THEORY>SGP4</MEAN_ELEMENT_THEORY></metadata><data><meanElements><EPOCH>2025-11-17T11:19:35.178816</EPOCH><MEAN_MOTION>14.49450378</MEAN_MOTION><ECCENTRICITY>.0018688</ECCENTRICITY><INCLINATION>86.3907</INCLINATION><RA_OF_ASC_NODE>145.4693</RA_OF_ASC_NODE><ARG_OF_PERICENTER>148.6783</ARG_OF_PERICENTER><MEAN_ANOMALY>211.5538</MEAN_ANOMALY></meanElements><tleParameters><EPHEMERIS_TYPE>0</EPHEMERIS_TYPE><CLASSIFICATION_TYPE>U</CLASSIFICATION_TYPE><NORAD_CAT_ID>25042</NORAD_CAT_ID><ELEMENT_SET_NO>999</ELEMENT_SET_NO><REV_AT_EPOCH>47116</REV_AT_EPOCH><BSTAR>.31454E-3</BSTAR><MEAN_MOTION_DOT>.1226E-4</MEAN_MOTION_DOT><MEAN_MOTION_DDOT>0</MEAN_MOTION_DDOT></tleParameters></data></segment></body></omm>
<omm id="CCSDS_OMM_VERS" version="2.0">
<header><CREATION_DATE/><ORIGINATOR/></header><body><segment><metadata><OBJECT_NAME>IRIDIUM 38</OBJECT_NAME><OBJECT_ID>1997-069E</OBJECT_ID><CENTER_NAME>EARTH</CENTER_NAME><REF_FRAME>TEME</REF_FRAME><TIME_SYSTEM>UTC</TIME_SYSTEM><MEAN_ELEMENT_THEORY>SGP4</MEAN_ELEMENT_THEORY></metadata><data><meanElements><EPOCH>2025-11-17T12:21:23.917824</EPOCH><MEAN_MOTION>14.38281249</MEAN_MOTION><ECCENTRICITY>.0001646</ECCENTRICITY><INCLINATION>86.3980</INCLINATION><RA_OF_ASC_NODE>168.7139</RA_OF_ASC_NODE><ARG_OF_PERICENTER>25.4746</ARG_OF_PERICENTER><MEAN_ANOMALY>334.6533</MEAN_ANOMALY></meanElements><tleParameters><EPHEMERIS_TYPE>0</EPHEMERIS_TYPE><CLASSIFICATION_TYPE>U</CLASSIFICATION_TYPE><NORAD_CAT_ID>25043</NORAD_CAT_ID><ELEMENT_SET_NO>999</ELEMENT_SET_NO><REV_AT_EPOCH>46799</REV_AT_EPOCH><BSTAR>.23269E-3</BSTAR><MEAN_MOTION_DOT>.727E-5</MEAN_MOTION_DOT><MEAN_MOTION_DDOT>0</MEAN_MOTION_DDOT></tleParameters></data></segment></body></omm>
<omm id="CCSDS_OMM_VERS" version="2.0">
<header><CREATION_DATE/><ORIGINATOR/></header><body><segment><metadata><OBJECT_NAME>IRIDIUM 42</OBJECT_NAME><OBJECT_ID>1997-077A</OBJECT_ID><CENTER_NAME>EARTH</CENTER_NAME><REF_FRAME>TEME</REF_FRAME><TIME_SYSTEM>UTC</TIME_SYSTEM><MEAN_ELEMENT_THEORY>SGP4</MEAN_ELEMENT_THEORY></metadata><data><meanElements><EPOCH>2025-11-17T12:01:09.873408</EPOCH><MEAN_MOTION>14.36502105</MEAN_MOTION><ECCENTRICITY>.0001921</ECCENTRICITY><INCLINATION>86.3992</INCLINATION><RA_OF_ASC_NODE>175.0734</RA_OF_ASC_NODE><ARG_OF_PERICENTER>63.8949</ARG_OF_PERICENTER><MEAN_ANOMALY>296.2446</MEAN_ANOMALY></meanElements><tleParameters><EPHEMERIS_TYPE>0</EPHEMERIS_TYPE><CLASSIFICATION_TYPE>U</CLASSIFICATION_TYPE><NORAD_CAT_ID>25077</NORAD_CAT_ID><ELEMENT_SET_NO>999</ELEMENT_SET_NO><REV_AT_EPOCH>46320</REV_AT_EPOCH><BSTAR>.15847E-3</BSTAR><MEAN_MOTION_DOT>.484E-5</MEAN_MOTION_DOT><MEAN_MOTION_DDOT>0</MEAN_MOTION_DDOT></tleParameters></data></segment></body></omm>
<omm id="CCSDS_OMM_VERS" version="2.0">
<header><CREATION_DATE/><ORIGINATOR/></header><body><segment><metadata><OBJECT_NAME>IRIDIUM 44</OBJECT_NAME><OBJECT_ID>1997-077B</OBJECT_ID><CENTER_NAME>EARTH</CENTER_NAME><REF_FRAME>TEME</REF_FRAME><TIME_SYSTEM>UTC</TIME_SYSTEM><MEAN_ELEMENT_THEORY>SGP4</MEAN_ELEMENT_THEORY></metadata><data><meanElements><EPOCH>2025-11-17T10:59:37.931424</EPOCH><MEAN_MOTION>14.40402431</MEAN_MOTION><ECCENTRICITY>.0000831</ECCENTRICITY><INCLINATION>86.3967</INCLINATION><RA_OF_ASC_NODE>156.6252</RA_OF_ASC_NODE><ARG_OF_PERICENTER>150.8432</ARG_OF_PERICENTER><MEAN_ANOMALY>209.2814</MEAN_ANOMALY></meanElements><tleParameters><EPHEMERIS_TYPE>0</EPHEMERIS_TYPE><CLASSIFICATION_TYPE>U</CLASSIFICATION_TYPE><NORAD_CAT_ID>25078</NORAD_CAT_ID><ELEMENT_SET_NO>999</ELEMENT_SET_NO><REV_AT_EPOCH>46576</REV_AT_EPOCH><BSTAR>.22351E-3</BSTAR><MEAN_MOTION_DOT>.729E-5</MEAN_MOTION_DOT><MEAN_MOTION_DDOT>0</MEAN_MOTION_DDOT></tleParameters></data></segment></body></omm>
<omm id="CCSDS_OMM_VERS" version="2.0">
<header><CREATION_DATE/><ORIGINATOR/></header><body><segment><metadata><OBJECT_NAME>IRIDIUM 45</OBJECT_NAME><OBJECT_ID>1997-082A</OBJECT_ID><CENTER_NAME>EARTH</CENTER_NAME><REF_FRAME>TEME</REF_FRAME><TIME_SYSTEM>UTC</TIME_SYSTEM><MEAN_ELEMENT_THEORY>SGP4</MEAN_ELEMENT_THEORY></metadata><data><meanElements><EPOCH>2025-11-17T12:00:16.422048</EPOCH><MEAN_MOTION>15.29617908</MEAN_MOTION><ECCENTRICITY>.0104681</ECCENTRICITY><INCLINATION>86.3546</INCLINATION><RA_OF_ASC_NODE>333.1011</RA_OF_ASC_NODE><ARG_OF_PERICENTER>113.9405</ARG_OF_PERICENTER><MEAN_ANOMALY>247.2850</MEAN_ANOMALY></meanElements><tleParameters><EPHEMERIS_TYPE>0</EPHEMERIS_TYPE><CLASSIFICATION_TYPE>U</CLASSIFICATION_TYPE><NORAD_CAT_ID>25104</NORAD_CAT_ID><ELEMENT_SET_NO>999</ELEMENT_SET_NO><REV_AT_EPOCH>47541</REV_AT_EPOCH><BSTAR>.86487E-3</BSTAR><MEAN_MOTION_DOT>.29453E-3</MEAN_MOTION_DOT><MEAN_MOTION_DDOT>0</MEAN_MOTION_DDOT></tleParameters></data></segment></body></omm>
<omm id="CCSDS_OMM_VERS" version="2.0">
<header><CREATION_DATE/><ORIGINATOR/></header><body><segment><metadata><OBJECT_NAME>IRIDIUM 24</OBJECT_NAME><OBJECT_ID>1997-082B</OBJECT_ID><CENTER_NAME>EARTH</CENTER_NAME><REF_FRAME>TEME</REF_FRAME><TIME_SYSTEM>UTC</TIME_SYSTEM><MEAN_ELEMENT_THEORY>SGP4</MEAN_ELEMENT_THEORY></metadata><data><meanElements><EPOCH>2025-11-17T05:34:53.147712</EPOCH><MEAN_MOTION>14.42294877</MEAN_MOTION><ECCENTRICITY>.0009278</ECCENTRICITY><INCLINATION>86.3939</INCLINATION><RA_OF_ASC_NODE>15.3729</RA_OF_ASC_NODE><ARG_OF_PERICENTER>296.7989</ARG_OF_PERICENTER><MEAN_ANOMALY>63.2262</MEAN_ANOMALY></meanElements><tleParameters><EPHEMERIS_TYPE>0</EPHEMERIS_TYPE><CLASSIFICATION_TYPE>U</CLASSIFICATION_TYPE><NORAD_CAT_ID>25105</NORAD_CAT_ID><ELEMENT_SET_NO>999</ELEMENT_SET_NO><REV_AT_EPOCH>46527</REV_AT_EPOCH><BSTAR>.25257E-3</BSTAR><MEAN_MOTION_DOT>.853E-5</MEAN_MOTION_DOT><MEAN_MOTION_DDOT>0</MEAN_MOTION_DDOT></tleParameters></data></segment></body></omm>
<omm id="CCSDS_OMM_VERS" version="2.0">
<header><CREATION_DATE/><ORIGINATOR/></header><body><segment><metadata><OBJECT_NAME>IRIDIUM 51</OBJECT_NAME><OBJECT_ID>1998-018A</OBJECT_ID><CENTER_NAME>EARTH</CENTER_NAME><REF_FRAME>TEME</REF_FRAME><TIME_SYSTEM>UTC</TIME_SYSTEM><MEAN_ELEMENT_THEORY>SGP4</MEAN_ELEMENT_THEORY></metadata><data><meanElements><EPOCH>2025-11-17T11:39:43.894080</EPOCH><MEAN_MOTION>15.56712845</MEAN_MOTION><ECCENTRICITY>.0059941</ECCENTRICITY><INCLINATION>86.3757</INCLINATION><RA_OF_ASC_NODE>339.1565</RA_OF_ASC_NODE><ARG_OF_PERICENTER>19.1236</ARG_OF_PERICENTER><MEAN_ANOMALY>341.2257</MEAN_ANOMALY></meanElements><tleParameters><EPHEMERIS_TYPE>0</EPHEMERIS_TYPE><CLASSIFICATION_TYPE>U</CLASSIFICATION_TYPE><NORAD_CAT_ID>25262</NORAD_CAT_ID><ELEMENT_SET_NO>999</ELEMENT_SET_NO><REV_AT_EPOCH>47071</REV_AT_EPOCH><BSTAR>.12988E-2</BSTAR><MEAN_MOTION_DOT>.101629E-2</MEAN_MOTION_DOT><MEAN_MOTION_DDOT>0</MEAN_MOTION_DDOT></tleParameters></data></segment></body></omm>
<omm id="CCSDS_OMM_VERS" version="2.0">
<header><CREATION_DATE/><ORIGINATOR/></header><body><segment><metadata><OBJECT_NAME>IRIDIUM 57</OBJECT_NAME><OBJECT_ID>1998-019B</OBJECT_ID><CENTER_NAME>EARTH</CENTER_NAME><REF_FRAME>TEME</REF_FRAME><TIME_SYSTEM>UTC</TIME_SYSTEM><MEAN_ELEMENT_THEORY>SGP4</MEAN_ELEMENT_THEORY></metadata><data><meanElements><EPOCH>2025-11-17T09:48:17.222688</EPOCH><MEAN_MOTION>14.36023476</MEAN_MOTION><ECCENTRICITY>.0001948</ECCENTRICITY><INCLINATION>86.3947</INCLINATION><RA_OF_ASC_NODE>81.0130</RA_OF_ASC_NODE><ARG_OF_PERICENTER>91.8168</ARG_OF_PERICENTER><MEAN_ANOMALY>268.3252</MEAN_ANOMALY></meanElements><tleParameters><EPHEMERIS_TYPE>0</EPHEMERIS_TYPE><CLASSIFICATION_TYPE>U</CLASSIFICATION_TYPE><NORAD_CAT_ID>25273</NORAD_CAT_ID><ELEMENT_SET_NO>999</ELEMENT_SET_NO><REV_AT_EPOCH>44677</REV_AT_EPOCH><BSTAR>.23936E-3</BSTAR><MEAN_MOTION_DOT>.715E-5</MEAN_MOTION_DOT><MEAN_MOTION_DDOT>0</MEAN_MOTION_DDOT></tleParameters></data></segment></body></omm>

</ndm>
